{
    "links": {
        "self": "http://www.neowsapp.com/rest/v1/neo/3444550?api_key=iIulBulltgU6a56xZRHN4H3l9WmuAYTsLGpBGhQ2"
    },
    "id": "3444550",
    "neo_reference_id": "3444550",
    "name": "(2009 BA11)",
    "designation": "2009 BA11",
    "nasa_jpl_url": "http://ssd.jpl.nasa.gov/sbdb.cgi?sstr=3444550",
    "absolute_magnitude_h": 24.0,
    "estimated_diameter": {
        "kilometers": {
            "estimated_diameter_min": 0.0421264611,
            "estimated_diameter_max": 0.0941976306
        },
        "meters": {
            "estimated_diameter_min": 42.1264610556,
            "estimated_diameter_max": 94.1976305719
        },
        "miles": {
            "estimated_diameter_min": 0.0261761612,
            "estimated_diameter_max": 0.0585316759
        },
        "feet": {
            "estimated_diameter_min": 138.2101784897,
            "estimated_diameter_max": 309.0473542854
        }
    },
    "is_potentially_hazardous_asteroid": false,
    "close_approach_data": [
        {
            "close_approach_date": "2009-02-13",
            "close_approach_date_full": "2009-Feb-13 10:51",
            "epoch_date_close_approach": 1234522260000,
            "relative_velocity": {
                "kilometers_per_second": "8.3309145669",
                "kilometers_per_hour": "29991.292440924",
                "miles_per_hour": "18635.4227947508"
            },
            "miss_distance": {
                "astronomical": "0.047836618",
                "lunar": "18.608444402",
                "kilometers": "7156256.16080366",
                "miles": "4446691.382504108"
            },
            "orbiting_body": "Earth"
        }
    ],
    "orbital_data": {
        "orbit_id": "11",
        "orbit_determination_date": "2017-04-06 09:01:34",
        "first_observation_date": "2009-01-25",
        "last_observation_date": "2009-02-05",
        "data_arc_in_days": 11,
        "observations_used": 39,
        "orbit_uncertainty": "8",
        "minimum_orbit_intersection": ".0281885",
        "jupiter_tisserand_invariant": "3.767",
        "epoch_osculation": "2454862.5",
        "eccentricity": ".4829337174791883",
        "semi_major_axis": "1.922983456878825",
        "inclination": "4.392936109956808",
        "ascending_node_longitude": "316.8404039154102",
        "orbital_period": "974.0062619653482",
        "perihelion_distance": ".9943099073973537",
        "perihelion_argument": "212.6363548049722",
        "aphelion_distance": "2.851657006360297",
        "perihelion_time": "2454895.180339258365",
        "mean_anomaly": "347.9211021608094",
        "mean_motion": ".3696074800110551",
        "equinox": "J2000",
        "orbit_class": {
            "orbit_class_type": "APO",
            "orbit_class_description": "Near-Earth asteroid orbits which cross the Earth’s orbit similar to that of 1862 Apollo",
            "orbit_class_range": "a (semi-major axis) > 1.0 AU; q (perihelion) < 1.017 AU"
        }
    },
    "is_sentry_object": false
}